IRIDIUM 119             
1 42959U 17061E   23293.85590819  .00000428  00000+0  14580-3 0  9992
2 42959  86.3948  70.7522 0001775  87.4136 272.7263 14.34216798315734
IRIDIUM 107             
1 42960U 17061F   23293.87493625  .00000521  00000+0  17891-3 0  9995
2 42960  86.3951  70.7595 0001815  93.3557 266.7847 14.34216028315746
IRIDIUM 132             
1 42961U 17061G   23293.88128219  .00000567  00000+0  19555-3 0  9990
2 42961  86.3948  70.7427 0001819  92.2621 267.8783 14.34217571315746
IRIDIUM 136             
1 42962U 17061H   23293.84321411  .00000047  00000+0  96278-5 0  9998
2 42962  86.3944  70.7608 0002076  86.4598 273.6836 14.34220104315759
IRIDIUM 139             
1 42963U 17061J   23293.91933544  .00000218  00000+0  70783-4 0  9995
2 42963  86.3950  70.7759 0001840  93.7514 266.3892 14.34219003315770
IRIDIUM 125             
1 42964U 17061K   23293.90664940  .00000248  00000+0  81350-4 0  9991
2 42964  86.3953  70.8242 0001775  88.1004 272.0395 14.34215494315784
IRIDIUM 135             
1 43070U 17083A   23293.25285344  .00000534  00000+0  18377-3 0  9995
2 43070  86.4024   7.8048 0002381 100.7204 259.4260 14.34222184304988
IRIDIUM 138             
1 43071U 17083B   23293.27822811  .00000722  00000+0  25089-3 0  9991
2 43071  86.4013   7.5418 0002012  89.2100 270.9327 14.34216075304975
